{
  "type": "FeatureCollection",
  "features": [
    {
      "type": "Feature",
      "properties": {
        "norad_id": 38833,
        "name": "GPS BIIF-3  (PRN 24)",
        "group": "gps-ops",
        "lat": -19.863647287174203,
        "lon": -13.402794247522417,
        "alt_km": 20543.900788142186,
        "timestamp": "2025-12-15T14:57:58.074132+00:00",
        "meta_object_name": "GPS BIIF-3  (PRN 24)",
        "meta_object_id": "2012-053A",
        "meta_epoch": "2025-12-13T20:21:34.724448",
        "meta_mean_motion": 2.00565042,
        "meta_eccentricity": 0.01758819,
        "meta_inclination": 53.5579,
        "meta_ra_of_asc_node": 151.1931,
        "meta_arg_of_pericenter": 64.0051,
        "meta_mean_anomaly": 297.7998,
        "meta_ephemeris_type": 0,
        "meta_classification_type": "U",
        "meta_norad_cat_id": 38833,
        "meta_element_set_no": 999,
        "meta_rev_at_epoch": 9572,
        "meta_bstar": 0,
        "meta_mean_motion_dot": 9.2e-07,
        "meta_mean_motion_ddot": 0,
        "tle_line1": "1 38833U 12053A   25347.84831857  .00000092  00000+0  00000+0 0  9990",
        "tle_line2": "2 38833  53.5579 151.1931 0175881  64.0051 297.7998  2.00565042 95726"
      },
      "geometry": {
        "type": "Point",
        "coordinates": [
          -13.402794247522417,
          -19.863647287174203
        ]
      }
    },
    {
      "type": "Feature",
      "properties": {
        "norad_id": 39166,
        "name": "GPS BIIF-4  (PRN 27)",
        "group": "gps-ops",
        "lat": -45.096467434206886,
        "lon": -128.89940674265742,
        "alt_km": 20298.529199659675,
        "timestamp": "2025-12-15T14:57:58.074143+00:00",
        "meta_object_name": "GPS BIIF-4  (PRN 27)",
        "meta_object_id": "2013-023A",
        "meta_epoch": "2025-12-14T05:03:38.216736",
        "meta_mean_motion": 2.0056471,
        "meta_eccentricity": 0.01375063,
        "meta_inclination": 54.6512,
        "meta_ra_of_asc_node": 276.5088,
        "meta_arg_of_pericenter": 48.2653,
        "meta_mean_anomaly": 312.9132,
        "meta_ephemeris_type": 0,
        "meta_classification_type": "U",
        "meta_norad_cat_id": 39166,
        "meta_element_set_no": 999,
        "meta_rev_at_epoch": 9217,
        "meta_bstar": 0,
        "meta_mean_motion_dot": -7.4e-07,
        "meta_mean_motion_ddot": 0,
        "tle_line1": "1 39166U 13023A   25348.21085899 -.00000074  00000+0  00000+0 0  9998",
        "tle_line2": "2 39166  54.6512 276.5088 0137506  48.2653 312.9132  2.00564710 92171"
      },
      "geometry": {
        "type": "Point",
        "coordinates": [
          -128.89940674265742,
          -45.096467434206886
        ]
      }
    },
    {
      "type": "Feature",
      "properties": {
        "norad_id": 39533,
        "name": "GPS BIIF-5  (PRN 30)",
        "group": "gps-ops",
        "lat": -41.41286049730782,
        "lon": 116.24196474506354,
        "alt_km": 20141.311148748246,
        "timestamp": "2025-12-15T14:57:58.074153+00:00",
        "meta_object_name": "GPS BIIF-5  (PRN 30)",
        "meta_object_id": "2014-008A",
        "meta_epoch": "2025-12-14T16:52:49.926432",
        "meta_mean_motion": 2.00574571,
        "meta_eccentricity": 0.00792742,
        "meta_inclination": 53.6315,
        "meta_ra_of_asc_node": 156.8445,
        "meta_arg_of_pericenter": 226.5365,
        "meta_mean_anomaly": 132.8141,
        "meta_ephemeris_type": 0,
        "meta_classification_type": "U",
        "meta_norad_cat_id": 39533,
        "meta_element_set_no": 999,
        "meta_rev_at_epoch": 8598,
        "meta_bstar": 0,
        "meta_mean_motion_dot": 9.6e-07,
        "meta_mean_motion_ddot": 0,
        "tle_line1": "1 39533U 14008A   25348.70335563  .00000096  00000+0  00000+0 0  9993",
        "tle_line2": "2 39533  53.6315 156.8445 0079274 226.5365 132.8141  2.00574571 85980"
      },
      "geometry": {
        "type": "Point",
        "coordinates": [
          116.24196474506354,
          -41.41286049730782
        ]
      }
    },
    {
      "type": "Feature",
      "properties": {
        "norad_id": 39741,
        "name": "GPS BIIF-6  (PRN 06)",
        "group": "gps-ops",
        "lat": 55.3215033122792,
        "lon": 86.05551253193586,
        "alt_km": 20256.982430709053,
        "timestamp": "2025-12-15T14:57:58.074163+00:00",
        "meta_object_name": "GPS BIIF-6  (PRN 06)",
        "meta_object_id": "2014-026A",
        "meta_epoch": "2025-12-14T11:43:02.437824",
        "meta_mean_motion": 2.00561295,
        "meta_eccentricity": 0.00392352,
        "meta_inclination": 56.5829,
        "meta_ra_of_asc_node": 338.7083,
        "meta_arg_of_pericenter": 318.7867,
        "meta_mean_anomaly": 40.9297,
        "meta_ephemeris_type": 0,
        "meta_classification_type": "U",
        "meta_norad_cat_id": 39741,
        "meta_element_set_no": 999,
        "meta_rev_at_epoch": 8483,
        "meta_bstar": 0,
        "meta_mean_motion_dot": -8.7e-07,
        "meta_mean_motion_ddot": 0,
        "tle_line1": "1 39741U 14026A   25348.48822266 -.00000087  00000+0  00000+0 0  9991",
        "tle_line2": "2 39741  56.5829 338.7083 0039235 318.7867  40.9297  2.00561295 84839"
      },
      "geometry": {
        "type": "Point",
        "coordinates": [
          86.05551253193586,
          55.3215033122792
        ]
      }
    },
    {
      "type": "Feature",
      "properties": {
        "norad_id": 40105,
        "name": "GPS BIIF-7  (PRN 09)",
        "group": "gps-ops",
        "lat": 29.38364139728972,
        "lon": 118.77612648916624,
        "alt_km": 20167.423411701904,
        "timestamp": "2025-12-15T14:57:58.074173+00:00",
        "meta_object_name": "GPS BIIF-7  (PRN 09)",
        "meta_object_id": "2014-045A",
        "meta_epoch": "2025-12-12T01:59:18.865536",
        "meta_mean_motion": 2.00572516,
        "meta_eccentricity": 0.00326941,
        "meta_inclination": 55.2287,
        "meta_ra_of_asc_node": 95.9251,
        "meta_arg_of_pericenter": 119.8618,
        "meta_mean_anomaly": 240.4523,
        "meta_ephemeris_type": 0,
        "meta_classification_type": "U",
        "meta_norad_cat_id": 40105,
        "meta_element_set_no": 999,
        "meta_rev_at_epoch": 8232,
        "meta_bstar": 0,
        "meta_mean_motion_dot": -9e-08,
        "meta_mean_motion_ddot": 0,
        "tle_line1": "1 40105U 14045A   25346.08285724 -.00000009  00000+0  00000+0 0  9998",
        "tle_line2": "2 40105  55.2287  95.9251 0032694 119.8618 240.4523  2.00572516 82323"
      },
      "geometry": {
        "type": "Point",
        "coordinates": [
          118.77612648916624,
          29.38364139728972
        ]
      }
    },
    {
      "type": "Feature",
      "properties": {
        "norad_id": 40294,
        "name": "GPS BIIF-8  (PRN 03)",
        "group": "gps-ops",
        "lat": 42.59386546871611,
        "lon": -178.8243827542059,
        "alt_km": 20088.09059404466,
        "timestamp": "2025-12-15T14:57:58.074183+00:00",
        "meta_object_name": "GPS BIIF-8  (PRN 03)",
        "meta_object_id": "2014-068A",
        "meta_epoch": "2025-12-13T10:57:14.379552",
        "meta_mean_motion": 2.00564944,
        "meta_eccentricity": 0.00607799,
        "meta_inclination": 56.8584,
        "meta_ra_of_asc_node": 38.1182,
        "meta_arg_of_pericenter": 69.1634,
        "meta_mean_anomaly": 291.5378,
        "meta_ephemeris_type": 0,
        "meta_classification_type": "U",
        "meta_norad_cat_id": 40294,
        "meta_element_set_no": 999,
        "meta_rev_at_epoch": 8148,
        "meta_bstar": 0,
        "meta_mean_motion_dot": -9.5e-07,
        "meta_mean_motion_ddot": 0,
        "tle_line1": "1 40294U 14068A   25347.45641643 -.00000095  00000+0  00000+0 0  9995",
        "tle_line2": "2 40294  56.8584  38.1182 0060779  69.1634 291.5378  2.00564944 81488"
      },
      "geometry": {
        "type": "Point",
        "coordinates": [
          -178.8243827542059,
          42.59386546871611
        ]
      }
    },
    {
      "type": "Feature",
      "properties": {
        "norad_id": 40534,
        "name": "GPS BIIF-9  (PRN 26)",
        "group": "gps-ops",
        "lat": 24.787958467427778,
        "lon": -128.00142155504818,
        "alt_km": 19896.368847611826,
        "timestamp": "2025-12-15T14:57:58.074193+00:00",
        "meta_object_name": "GPS BIIF-9  (PRN 26)",
        "meta_object_id": "2015-013A",
        "meta_epoch": "2025-12-14T14:00:18.636192",
        "meta_mean_motion": 2.00562523,
        "meta_eccentricity": 0.01071292,
        "meta_inclination": 53.1975,
        "meta_ra_of_asc_node": 211.8138,
        "meta_arg_of_pericenter": 38.5211,
        "meta_mean_anomaly": 322.322,
        "meta_ephemeris_type": 0,
        "meta_classification_type": "U",
        "meta_norad_cat_id": 40534,
        "meta_element_set_no": 999,
        "meta_rev_at_epoch": 7812,
        "meta_bstar": 0,
        "meta_mean_motion_dot": 6.1e-07,
        "meta_mean_motion_ddot": 0,
        "tle_line1": "1 40534U 15013A   25348.58354903  .00000061  00000+0  00000+0 0  9990",
        "tle_line2": "2 40534  53.1975 211.8138 0107129  38.5211 322.3220  2.00562523 78129"
      },
      "geometry": {
        "type": "Point",
        "coordinates": [
          -128.00142155504818,
          24.787958467427778
        ]
      }
    }
  ]
}